MEAN_MOTION;ECCENTRICITY;INCLINATION;RA_OF_ASC_NODE;ARG_OF_PERICENTER;MEAN_ANOMALY;BSTAR;MEAN_MOTION_DOT;MEAN_MOTION_DDOT;TYPE
0.99793382;0.0004645;13.1846;329.0605;44.1001;134.9311;0;-3.8E-7;0;Intelsat
0.99793546;0.0004649;13.1839;329.0548;44.2374;320.0867;0;-4.6E-7;0;Intelsat
0.99793811;0.0004651;13.1825;329.0444;44.6465;300.6462;0;-6.2E-7;0;Intelsat
0.99794004;0.0004654;13.1815;329.0368;44.7808;187.8124;0;-7.3E-7;0;Intelsat
0.9979409;0.0004661;13.181;329.0333;44.8348;301.4276;0;-7.8E-7;0;Intelsat
0.99794246;0.0004657;13.1802;329.0271;45.1123;147.3727;0;-8.8E-7;0;Intelsat
0.99794473;0.0004661;13.1788;329.0163;45.3691;141.652;0;-1.04E-6;0;Intelsat
0.99794701;0.0004668;13.1773;329.0051;45.6199;148.7787;0;-1.2E-6;0;Intelsat
0.99794787;0.0004676;13.1767;329.0004;45.5986;303.505;0;-1.26E-6;0;Intelsat
0.99794944;0.0004688;13.1752;328.9894;45.8216;304.2739;0;-1.41E-6;0;Intelsat
0.99795075;0.0004703;13.1738;328.9786;46.0731;304.9337;0;-1.55E-6;0;Intelsat
0.99795075;0.0004703;13.1738;328.9786;46.0731;304.9337;0;-1.54E-6;0;Intelsat
0.99795144;0.0004711;13.1729;328.9726;46.2531;144.1125;0;-1.62E-6;0;Intelsat
0.99795228;0.0004733;13.1714;328.9612;46.3997;160.5448;0;-1.75E-6;0;Intelsat
0.99795306;0.0004752;13.17;328.9513;46.6333;126.8362;0;-1.87E-6;0;Intelsat
0.99795325;0.0004765;13.1693;328.9459;46.8636;306.9935;0;-1.93E-6;0;Intelsat
0.99795357;0.0004776;13.1685;328.9404;47.0132;127.4309;0;-1.99E-6;0;Intelsat
0.99795376;0.0004799;13.167;328.9295;47.3672;128.0371;0;-2.11E-6;0;Intelsat
0.99795376;0.0004805;13.1667;328.9273;47.5256;202.5643;0;-2.14E-6;0;Intelsat
0.99795325;0.0004829;13.1652;328.9166;47.8503;195.4459;0;-2.26E-6;0;Intelsat
0.99795304;0.0004846;13.164;328.9076;48.1358;129.1658;0;-2.36E-6;0;Intelsat
0.9979527;0.0004851;13.1632;328.9018;48.4395;321.9133;0;-2.42E-6;0;Intelsat
0.99795208;0.0004867;13.1624;328.896;48.6061;154.4479;0;-2.48E-6;0;Intelsat
0.99795129;0.0004884;13.1609;328.8858;49.1291;132.1924;0;-2.59E-6;0;Intelsat
0.99795006;0.0004899;13.1594;328.875;49.6693;130.5038;0;-2.69E-6;0;Intelsat
0.99795006;0.0004899;13.1594;328.875;49.6693;130.5038;0;-2.7E-6;0;Intelsat
0.99794846;0.0004911;13.1579;328.8642;50.2348;130.9084;0;-2.8E-6;0;Intelsat
0.99794667;0.0004921;13.1563;328.8533;50.8221;131.2743;0;-2.9E-6;0;Intelsat
0.99794451;0.0004929;13.1548;328.8425;51.4354;131.6175;0;-2.99E-6;0;Intelsat
0.99794203;0.0004932;13.1532;328.8317;52.0465;131.9719;0;-3.08E-6;0;Intelsat
0.9979363;0.000493;13.1502;328.81;53.2638;132.6479;0;-3.24E-6;0;Intelsat
0.99793481;0.0004928;13.1495;328.8053;53.6058;289.1604;0;-3.27E-6;0;Intelsat
0.9979331;0.0004926;13.1486;328.7991;53.9497;132.9139;0;-3.32E-6;0;Intelsat
0.99792986;0.0004919;13.1471;328.7882;54.4685;133.3408;0;-3.39E-6;0;Intelsat
0.99792617;0.000491;13.1456;328.7773;54.9888;133.7892;0;-3.46E-6;0;Intelsat
0.99792231;0.0004898;13.1441;328.7663;55.4694;134.2538;0;-3.53E-6;0;Intelsat
0.99791636;0.0004887;13.1422;328.7517;55.9994;259.5073;0;-3.62E-6;0;Intelsat
0.99791343;0.0004879;13.1412;328.7446;56.3893;135.2212;0;-3.65E-6;0;Intelsat
0.99790794;0.0004867;13.1394;328.7312;56.7597;221.4203;0;-3.71E-6;0;Intelsat
0.99790268;0.0004863;13.1378;328.7191;57.1315;263.8763;0;-3.74E-6;0;Intelsat
0.9978992;0.0004859;13.1368;328.7122;57.3954;137.0189;0;-3.74E-6;0;Intelsat
0.99789416;0.0004859;13.1353;328.7014;57.6582;137.716;0;-3.74E-6;0;Intelsat
0.99789201;0.0004862;13.1347;328.6968;57.7092;292.3912;0;-3.73E-6;0;Intelsat
0.99788962;0.0004862;13.134;328.6918;57.8507;101.1515;0;-3.71E-6;0;Intelsat
0.99788359;0.0004869;13.1323;328.68;58.0543;136.8261;0;-3.66E-6;0;Intelsat
0.99788133;0.0004873;13.1317;328.6753;58.1567;293.8216;0;-3.64E-6;0;Intelsat
0.99787861;0.0004875;13.1309;328.6697;58.2779;119.6384;0;-3.61E-6;0;Intelsat
0.99787315;0.0004885;13.1294;328.6592;58.475;113.4518;0;-3.54E-6;0;Intelsat
0.99787042;0.0004893;13.1286;328.6537;58.65;295.2018;0;-3.49E-6;0;Intelsat
0.99786787;0.0004897;13.1278;328.6483;58.7514;115.5527;0;-3.45E-6;0;Intelsat
0.99786519;0.0004906;13.127;328.643;58.962;295.8277;0;-3.41E-6;0;Intelsat
0.99786109;0.0004918;13.1258;328.6346;59.2436;218.5233;0;-3.33E-6;0;Intelsat
0.99785997;0.0004918;13.1254;328.6322;59.3258;296.3791;0;-3.31E-6;0;Intelsat
0.99785704;0.0004923;13.1247;328.6268;59.4042;116.7632;0;-3.26E-6;0;Intelsat
0.99785016;0.0004943;13.1226;328.613;60.0107;219.3546;0;-3.12E-6;0;Intelsat
0.99784915;0.0004943;13.1223;328.6106;60.109;297.4292;0;-3.09E-6;0;Intelsat
0.9978464;0.0004948;13.1215;328.6052;60.2375;117.7792;0;-3.03E-6;0;Intelsat
0.99784142;0.000496;13.12;328.5945;60.7533;118.1765;0;-2.91E-6;0;Intelsat
0.99783896;0.0004962;13.1192;328.5891;61.1233;298.2702;0;-2.84E-6;0;Intelsat
0.99783649;0.0004971;13.1183;328.5834;61.3045;131.2665;0;-2.77E-6;0;Intelsat
0.99783173;0.0004979;13.1168;328.5728;61.8567;125.9574;0;-2.64E-6;0;Intelsat
0.99782945;0.0004978;13.116;328.5677;62.1857;298.977;0;-2.57E-6;0;Intelsat
0.99782729;0.0004985;13.1153;328.5623;62.391;119.2453;0;-2.5E-6;0;Intelsat
0.99782282;0.0004988;13.1137;328.5515;63.0412;122.1386;0;-2.35E-6;0;Intelsat
0.99782115;0.0004988;13.1131;328.5476;63.2729;252.2012;0;-2.29E-6;0;Intelsat
0.99782071;0.0004986;13.1129;328.5462;63.3147;299.6549;0;-2.27E-6;0;Intelsat
0.99781865;0.000499;13.1121;328.5409;63.5473;119.8937;0;-2.19E-6;0;Intelsat
0.99781486;0.0004987;13.1106;328.5303;64.0894;113.9125;0;-2.04E-6;0;Intelsat
0.99781294;0.0004984;13.1098;328.5248;64.4056;300.396;0;-1.96E-6;0;Intelsat
0.99781119;0.0004981;13.109;328.5194;64.7232;120.5302;0;-1.88E-6;0;Intelsat
0.99780764;0.0004971;13.1074;328.5086;65.3565;122.8252;0;-1.73E-6;0;Intelsat
0.99780441;0.0004961;13.1059;328.498;65.8238;116.3436;0;-1.58E-6;0;Intelsat
0.99779896;0.000493;13.1027;328.4762;66.892;121.966;0;-1.3E-6;0;Intelsat
0.99779596;0.0004904;13.1006;328.4613;67.5832;257.5862;0;-1.12E-6;0;Intelsat
0.99779467;0.0004893;13.0997;328.4547;67.8199;116.9779;0;-1.04E-6;0;Intelsat
0.99779365;0.0004888;13.0989;328.4491;67.9947;303.0977;0;-9.8E-7;0;Intelsat
0.99779292;0.0004877;13.0982;328.4445;68.2033;97.6312;0;-9.2E-7;0;Intelsat
0.99779154;0.0004859;13.0967;328.4334;68.4935;110.5059;0;-7.9E-7;0;Intelsat
0.99779102;0.0004855;13.0958;328.4276;68.6077;304.2694;0;-7.2E-7;0;Intelsat
0.9977904;0.0004843;13.0951;328.4225;68.7901;115.9151;0;-6.6E-7;0;Intelsat
0.99778944;0.0004831;13.0935;328.4116;69.038;125.2033;0;-5.2E-7;0;Intelsat
0.99778901;0.0004821;13.092;328.4009;69.2615;125.8748;0;-3.7E-7;0;Intelsat
0.99778887;0.0004815;13.0905;328.3909;69.5161;100.7893;0;-2.4E-7;0;Intelsat
0.99778899;0.0004815;13.0898;328.3856;69.5392;281.2022;0;-1.6E-7;0;Intelsat
0.99778936;0.0004815;13.0882;328.3748;69.6472;281.9877;0;-1.0E-8;0;Intelsat
0.99778973;0.0004812;13.0874;328.3693;69.7914;106.4383;0;6.0E-8;0;Intelsat
0.99779039;0.0004813;13.0858;328.3587;70.006;102.9955;0;2.0E-7;0;Intelsat
0.99779105;0.0004818;13.085;328.3533;70.0622;283.3774;0;2.7E-7;0;Intelsat
0.99779174;0.0004816;13.0842;328.3479;70.1992;103.6831;0;3.3E-7;0;Intelsat
0.99779318;0.000482;13.0826;328.3371;70.467;104.323;0;4.6E-7;0;Intelsat
0.99779413;0.0004822;13.0819;328.3317;70.7229;284.4854;0;5.2E-7;0;Intelsat
0.99779503;0.0004824;13.0811;328.3264;70.8036;101.6747;0;5.7E-7;0;Intelsat
0.99779706;0.0004829;13.0795;328.3155;71.1789;105.4022;0;6.8E-7;0;Intelsat
0.99779825;0.0004831;13.0787;328.31;71.4346;285.5662;0;7.4E-7;0;Intelsat
0.99780044;0.0004836;13.0773;328.301;71.7608;227.9502;0;8.1E-7;0;Intelsat
0.99780232;0.000484;13.0763;328.2938;72.0177;109.6114;0;8.7E-7;0;Intelsat
0.99780388;0.0004837;13.0755;328.2885;72.3236;286.4881;0;9.1E-7;0;Intelsat
0.99780558;0.0004842;13.0747;328.2832;72.4923;106.7736;0;9.5E-7;0;Intelsat
0.99780892;0.0004842;13.0731;328.2724;73.0297;107.1529;0;1.02E-6;0;Intelsat
0.99781234;0.000484;13.0715;328.2616;73.5628;107.5181;0;1.09E-6;0;Intelsat
0.99781618;0.0004836;13.0699;328.2509;74.085;107.8638;0;1.14E-6;0;Intelsat
0.99781824;0.0004828;13.069;328.2455;74.3805;288.012;0;1.16E-6;0;Intelsat
0.99782488;0.0004818;13.0665;328.2284;75.2758;135.7495;0;1.2E-6;0;Intelsat
0.99782683;0.000481;13.0659;328.2237;75.4753;288.7402;0;1.21E-6;0;Intelsat
0.99783503;0.0004782;13.0628;328.2037;76.5202;230.6309;0;1.2E-6;0;Intelsat
0.99783503;0.0004782;13.0628;328.2037;76.5202;230.6309;0;1.21E-6;0;Intelsat
0.99783819;0.0004771;13.0618;328.1964;76.8898;109.5926;0;1.19E-6;0;Intelsat
0.99784294;0.0004749;13.0602;328.1855;77.4081;109.9756;0;1.15E-6;0;Intelsat
0.99784758;0.0004726;13.0587;328.1745;77.8578;110.4591;0;1.1E-6;0;Intelsat
0.99785014;0.0004715;13.0579;328.169;78.0054;290.755;0;1.06E-6;0;Intelsat
0.99785754;0.0004674;13.0557;328.1526;78.6548;111.5077;0;9.5E-7;0;Intelsat
0.99785995;0.0004663;13.0549;328.1471;78.7256;291.8868;0;9.1E-7;0;Intelsat
0.99786233;0.0004649;13.0541;328.1417;78.9454;112.0378;0;8.7E-7;0;Intelsat
0.99786688;0.0004628;13.0527;328.1316;79.1741;87.0773;0;7.9E-7;0;Intelsat
0.99786954;0.0004611;13.0518;328.1254;79.2496;293.2008;0;7.4E-7;0;Intelsat
0.99787649;0.0004581;13.0495;328.1091;79.5737;114.2765;0;6.2E-7;0;Intelsat
0.99787882;0.0004573;13.0487;328.1036;79.5522;294.7532;0;5.8E-7;0;Intelsat
0.99788116;0.0004565;13.0479;328.0982;79.6787;115.0927;0;5.4E-7;0;Intelsat
0.99788611;0.0004553;13.0461;328.0862;79.6929;153.6769;0;4.6E-7;0;Intelsat
0.99788982;0.0004542;13.0448;328.0771;79.8282;91.0778;0;3.9E-7;0;Intelsat
0.99789411;0.0004535;13.0432;328.0662;79.8995;91.928;0;3.1E-7;0;Intelsat
0.99789832;0.0004529;13.0416;328.0552;80.0299;92.7454;0;2.2E-7;0;Intelsat
0.99790046;0.0004526;13.0408;328.0497;80.2112;273.0172;0;1.8E-7;0;Intelsat
0.99790602;0.0004516;13.0384;328.0332;80.5215;94.1204;0;3.0E-8;0;Intelsat
0.99790991;0.0004516;13.0367;328.0221;80.726;94.8517;0;-7.0E-8;0;Intelsat
0.99791354;0.0004513;13.0351;328.0111;81.0538;95.4771;0;-1.7E-7;0;Intelsat
0.99791694;0.0004508;13.0335;328.0001;81.4421;96.0074;0;-2.8E-7;0;Intelsat
0.99792;0.0004506;13.0319;327.989;81.784;96.6074;0;-3.8E-7;0;Intelsat
0.99792289;0.0004505;13.0302;327.978;82.1409;97.1966;0;-4.9E-7;0;Intelsat
0.99792431;0.0004496;13.0294;327.9724;82.4971;281.8101;0;-5.5E-7;0;Intelsat
